{"type": "FeatureCollection", "features": [ {"type": "Feature", "properties": {"norad_id": 30208, "name": "FENGYUN 1C DEB", "group": "fengyun-1c-debris", "lat": -21.061072028839245, "lon": -2.428404039454415, "alt_km": 818.0101165268989, "timestamp": "2025-12-19T10:50:01.475712+00:00", "meta": {"OBJECT_NAME": "FENGYUN 1C DEB", "OBJECT_ID": "1999-025VR", "EPOCH": "2025-12-18T23:22:48.840960", "MEAN_MOTION": 14.23540147, "ECCENTRICITY": 0.0032984, "INCLINATION": 98.5616, "RA_OF_ASC_NODE": 353.7815, "ARG_OF_PERICENTER": 251.4766, "MEAN_ANOMALY": 162.6575, "EPHEMERIS_TYPE": 0, "CLASSIFICATION_TYPE": "U", "NORAD_CAT_ID": 30208, "ELEMENT_SET_NO": 999, "REV_AT_EPOCH": 97926, "BSTAR": 0.00038836048, "MEAN_MOTION_DOT": 8.46e-06, "MEAN_MOTION_DDOT": 0}, "tle": {"line1": "1 30208U 99025VR  25352.97417640  .00000846  00000+0  38836-3 0  9991", "line2": "2 30208  98.5616 353.7815 0032984 251.4766 162.6575 14.23540147979265"}}, "geometry": {"type": "Point", "coordinates": [-2.428404039454415, -21.061072028839245]}}, {"type": "Feature", "properties": {"norad_id": 30209, "name": "FENGYUN 1C DEB", "group": "fengyun-1c-debris", "lat": 63.0801617772605, "lon": -27.480071686095986, "alt_km": 868.6412816938719, "timestamp": "2025-12-19T10:50:01.475722+00:00", "meta": {"OBJECT_NAME": "FENGYUN 1C DEB", "OBJECT_ID": "1999-025VS", "EPOCH": "2025-12-18T22:46:06.954240", "MEAN_MOTION": 14.12911152, "ECCENTRICITY": 0.00388365, "INCLINATION": 98.714, "RA_OF_ASC_NODE": 349.6113, "ARG_OF_PERICENTER": 220.7931, "MEAN_ANOMALY": 168.2571, "EPHEMERIS_TYPE": 0, "CLASSIFICATION_TYPE": "U", "NORAD_CAT_ID": 30209, "ELEMENT_SET_NO": 999, "REV_AT_EPOCH": 97294, "BSTAR": 0.0002970144, "MEAN_MOTION_DOT": 5.14e-06, "MEAN_MOTION_DDOT": 0}, "tle": {"line1": "1 30209U 99025VS  25352.94869160  .00000514  00000+0  29701-3 0  9990", "line2": "2 30209  98.7140 349.6113 0038836 220.7931 168.2571 14.12911152972942"}}, "geometry": {"type": "Point", "coordinates": [-27.480071686095986, 63.0801617772605]}}, {"type": "Feature", "properties": {"norad_id": 30210, "name": "FENGYUN 1C DEB", "group": "fengyun-1c-debris", "lat": -39.667092619237664, "lon": 51.035451735243704, "alt_km": 909.9089655142034, "timestamp": "2025-12-19T10:50:01.475732+00:00", "meta": {"OBJECT_NAME": "FENGYUN 1C DEB", "OBJECT_ID": "1999-025VT", "EPOCH": "2025-12-18T16:49:56.951904", "MEAN_MOTION": 14.08279762, "ECCENTRICITY": 0.00568907, "INCLINATION": 99.1898, "RA_OF_ASC_NODE": 42.5571, "ARG_OF_PERICENTER": 120.0551, "MEAN_ANOMALY": 359.4609, "EPHEMERIS_TYPE": 0, "CLASSIFICATION_TYPE": "U", "NORAD_CAT_ID": 30210, "ELEMENT_SET_NO": 999, "REV_AT_EPOCH": 96841, "BSTAR": 0.00041071118, "MEAN_MOTION_DOT": 6.67e-06, "MEAN_MOTION_DDOT": 0}, "tle": {"line1": "1 30210U 99025VT  25352.70135361  .00000667  00000+0  41071-3 0  9998", "line2": "2 30210  99.1898  42.5571 0056890 120.0551 359.4609 14.08279762968418"}}, "geometry": {"type": "Point", "coordinates": [51.035451735243704, -39.667092619237664]}}, {"type": "Feature", "properties": {"norad_id": 30212, "name": "FENGYUN 1C DEB", "group": "fengyun-1c-debris", "lat": -58.660404688831605, "lon": -125.0905996991263, "alt_km": 899.4500973294298, "timestamp": "2025-12-19T10:50:01.475743+00:00", "meta": {"OBJECT_NAME": "FENGYUN 1C DEB", "OBJECT_ID": "1999-025VV", "EPOCH": "2025-12-18T14:29:46.565088", "MEAN_MOTION": 13.9705919, "ECCENTRICITY": 0.00970094, "INCLINATION": 99.4568, "RA_OF_ASC_NODE": 218.1536, "ARG_OF_PERICENTER": 221.2702, "MEAN_ANOMALY": 138.1099, "EPHEMERIS_TYPE": 0, "CLASSIFICATION_TYPE": "U", "NORAD_CAT_ID": 30212, "ELEMENT_SET_NO": 999, "REV_AT_EPOCH": 96307, "BSTAR": 0.0001356375, "MEAN_MOTION_DOT": 1.49e-06, "MEAN_MOTION_DDOT": 0}, "tle": {"line1": "1 30212U 99025VV  25352.60401117  .00000149  00000+0  13564-3 0  9995", "line2": "2 30212  99.4568 218.1536 0097009 221.2702 138.1099 13.97059190963078"}}, "geometry": {"type": "Point", "coordinates": [-125.0905996991263, -58.660404688831605]}}, {"type": "Feature", "properties": {"norad_id": 30213, "name": "FENGYUN 1C DEB", "group": "fengyun-1c-debris", "lat": 0.6295161018281757, "lon": 69.9020041578528, "alt_km": 893.7822793099112, "timestamp": "2025-12-19T10:50:01.475753+00:00", "meta": {"OBJECT_NAME": "FENGYUN 1C DEB", "OBJECT_ID": "1999-025VW", "EPOCH": "2025-12-18T16:50:32.929728", "MEAN_MOTION": 14.11607934, "ECCENTRICITY": 0.00721733, "INCLINATION": 99.1229, "RA_OF_ASC_NODE": 69.2413, "ARG_OF_PERICENTER": 227.2584, "MEAN_ANOMALY": 285.5225, "EPHEMERIS_TYPE": 0, "CLASSIFICATION_TYPE": "U", "NORAD_CAT_ID": 30213, "ELEMENT_SET_NO": 999, "REV_AT_EPOCH": 96599, "BSTAR": 0.0011488406, "MEAN_MOTION_DOT": 2.093e-05, "MEAN_MOTION_DDOT": 0}, "tle": {"line1": "1 30213U 99025VW  25352.70177002  .00002093  00000+0  11488-2 0  9992", "line2": "2 30213  99.1229  69.2413 0072173 227.2584 285.5225 14.11607934965991"}}, "geometry": {"type": "Point", "coordinates": [69.9020041578528, 0.6295161018281757]}}, {"type": "Feature", "properties": {"norad_id": 30214, "name": "FENGYUN 1C DEB", "group": "fengyun-1c-debris", "lat": -75.0957628800648, "lon": 101.86333598553394, "alt_km": 798.7833704320328, "timestamp": "2025-12-19T10:50:01.475763+00:00", "meta": {"OBJECT_NAME": "FENGYUN 1C DEB", "OBJECT_ID": "1999-025VX", "EPOCH": "2025-12-18T22:11:35.838240", "MEAN_MOTION": 14.30972064, "ECCENTRICITY": 0.00204451, "INCLINATION": 98.7246, "RA_OF_ASC_NODE": 66.0986, "ARG_OF_PERICENTER": 25.6841, "MEAN_ANOMALY": 65.0194, "EPHEMERIS_TYPE": 0, "CLASSIFICATION_TYPE": "U", "NORAD_CAT_ID": 30214, "ELEMENT_SET_NO": 999, "REV_AT_EPOCH": 97655, "BSTAR": 0.0012755361, "MEAN_MOTION_DOT": 3.318e-05, "MEAN_MOTION_DDOT": 0}, "tle": {"line1": "1 30214U 99025VX  25352.92472035  .00003318  00000+0  12755-2 0  9990", "line2": "2 30214  98.7246  66.0986 0020445  25.6841  65.0194 14.30972064976557"}}, "geometry": {"type": "Point", "coordinates": [101.86333598553394, -75.0957628800648]}}, {"type": "Feature", "properties": {"norad_id": 30217, "name": "FENGYUN 1C DEB", "group": "fengyun-1c-debris", "lat": -72.7386201371097, "lon": 5.471819556565017, "alt_km": 907.862655717212, "timestamp": "2025-12-19T10:50:01.475774+00:00", "meta": {"OBJECT_NAME": "FENGYUN 1C DEB", "OBJECT_ID": "1999-025WA", "EPOCH": "2025-12-18T21:42:22.001184", "MEAN_MOTION": 14.24842206, "ECCENTRICITY": 0.01407238, "INCLINATION": 98.4317, "RA_OF_ASC_NODE": 336.4333, "ARG_OF_PERICENTER": 81.9158, "MEAN_ANOMALY": 279.796, "EPHEMERIS_TYPE": 0, "CLASSIFICATION_TYPE": "U", "NORAD_CAT_ID": 30217, "ELEMENT_SET_NO": 999, "REV_AT_EPOCH": 98161, "BSTAR": 0.00020486221, "MEAN_MOTION_DOT": 4.89e-06, "MEAN_MOTION_DDOT": 0}, "tle": {"line1": "1 30217U 99025WA  25352.90442131  .00000489  00000+0  20486-3 0  9992", "line2": "2 30217  98.4317 336.4333 0140723  81.9158 279.7960 14.24842206981619"}}, "geometry": {"type": "Point", "coordinates": [5.471819556565017, -72.7386201371097]}}, {"type": "Feature", "properties": {"norad_id": 30218, "name": "FENGYUN 1C DEB", "group": "fengyun-1c-debris", "lat": -67.07419047442242, "lon": -118.94786258732334, "alt_km": 753.3050609494358, "timestamp": "2025-12-19T10:50:01.475784+00:00", "meta": {"OBJECT_NAME": "FENGYUN 1C DEB", "OBJECT_ID": "1999-025WB", "EPOCH": "2025-12-18T05:14:14.517312", "MEAN_MOTION": 14.28872853, "ECCENTRICITY": 0.00708922, "INCLINATION": 98.9877, "RA_OF_ASC_NODE": 81.7565, "ARG_OF_PERICENTER": 238.3135, "MEAN_ANOMALY": 150.3932, "EPHEMERIS_TYPE": 0, "CLASSIFICATION_TYPE": "U", "NORAD_CAT_ID": 30218, "ELEMENT_SET_NO": 999, "REV_AT_EPOCH": 97187, "BSTAR": 0.0020912898, "MEAN_MOTION_DOT": 5.378e-05, "MEAN_MOTION_DDOT": 0}, "tle": {"line1": "1 30218U 99025WB  25352.21822358  .00005378  00000+0  20913-2 0  9996", "line2": "2 30218  98.9877  81.7565 0070892 238.3135 150.3932 14.28872853971870"}}, "geometry": {"type": "Point", "coordinates": [-118.94786258732334, -67.07419047442242]}}, {"type": "Feature", "properties": {"norad_id": 30221, "name": "FENGYUN 1C DEB", "group": "fengyun-1c-debris", "lat": -28.972807898082543, "lon": -103.51895965695918, "alt_km": 847.5005196551365, "timestamp": "2025-12-19T10:50:01.475794+00:00", "meta": {"OBJECT_NAME": "FENGYUN 1C DEB", "OBJECT_ID": "1999-025WE", "EPOCH": "2025-12-18T18:55:21.576288", "MEAN_MOTION": 14.45823566, "ECCENTRICITY": 0.01451527, "INCLINATION": 98.9561, "RA_OF_ASC_NODE": 80.7906, "ARG_OF_PERICENTER": 23.3978, "MEAN_ANOMALY": 337.373, "EPHEMERIS_TYPE": 0, "CLASSIFICATION_TYPE": "U", "NORAD_CAT_ID": 30221, "ELEMENT_SET_NO": 999, "REV_AT_EPOCH": 99488, "BSTAR": 0.00015301805, "MEAN_MOTION_DOT": 5.62e-06, "MEAN_MOTION_DDOT": 0}, "tle": {"line1": "1 30221U 99025WE  25352.78844417  .00000562  00000+0  15302-3 0  9999", "line2": "2 30221  98.9561  80.7906 0145152  23.3978 337.3730 14.45823566994886"}}, "geometry": {"type": "Point", "coordinates": [-103.51895965695918, -28.972807898082543]}}, {"type": "Feature", "properties": {"norad_id": 30222, "name": "FENGYUN 1C DEB", "group": "fengyun-1c-debris", "lat": -75.11715888280469, "lon": 170.80964883596147, "alt_km": 900.8269307961946, "timestamp": "2025-12-19T10:50:01.475804+00:00", "meta": {"OBJECT_NAME": "FENGYUN 1C DEB", "OBJECT_ID": "1999-025WF", "EPOCH": "2025-12-18T17:05:23.724096", "MEAN_MOTION": 14.04075255, "ECCENTRICITY": 0.00376207, "INCLINATION": 98.8404, "RA_OF_ASC_NODE": 25.9357, "ARG_OF_PERICENTER": 20.6027, "MEAN_ANOMALY": 102.7429, "EPHEMERIS_TYPE": 0, "CLASSIFICATION_TYPE": "U", "NORAD_CAT_ID": 30222, "ELEMENT_SET_NO": 999, "REV_AT_EPOCH": 96922, "BSTAR": 6.6517505e-05, "MEAN_MOTION_DOT": 6.3e-07, "MEAN_MOTION_DDOT": 0}, "tle": {"line1": "1 30222U 99025WF  25352.71208014  .00000063  00000+0  66518-4 0  9992", "line2": "2 30222  98.8404  25.9357 0037620  20.6027 102.7429 14.04075255969226"}}, "geometry": {"type": "Point", "coordinates": [170.80964883596147, -75.11715888280469]}}]}